COSMOS 1812             
1 17295U 87003A   26061.01343874  .01403358 -12034-5  80874-3 0  9997
2 17295  82.4732 204.4146 0006784 288.0935  71.9614 16.18918330143245
IRIDIUM 51              
1 25262U 98018A   26061.81547270  .00601208  15490-3  12882-2 0  9994
2 25262  86.3543 284.2649 0018320 312.6025  47.3714 15.98263943487258
CZ-2D DEB               
1 31409U 05024J   26060.90543068  .00239460  23346-4  72484-3 0  9991
2 31409  97.1482 103.0739 0004089 145.2826 214.8716 15.92111318117181
ZIYUAN 3-01 (ZY 3-01)   
1 38046U 12001A   26061.87000047  .00400427  67235-4  94385-3 0  9992
2 38046  97.1546 136.3605 0001582 245.7463 114.3649 15.96838851787617
HUMSAT-D                
1 39433U 13066T   26061.56297787  .00877160  35625-3  19629-2 0  9996
2 39433  97.4841  73.9995 0006834 161.4567 198.6960 15.97804823670324
H-2A DEB                
1 43675U 18084E   26061.80074364  .01053832  53161-3  24552-2 0  9994
2 43675  98.0079 277.4869 0003218 303.1909  56.9057 15.97147042402022
SPACEBEE-7              
1 43816U 18099BL  26061.75586284  .01193306  78424-3  19892-2 0  9991
2 43816  97.4408 148.0919 0007821 270.3555  89.6828 16.03076494398105
STARLINK-1112           
1 44925U 20001M   26061.83057712  .00613782  19212-3  87701-3 0  9996
2 44925  53.0343 276.6873 0003660 265.7652  94.2961 16.04943226340220
STARLINK-1210           
1 45207U 20012AF  26061.92582021  .03202188  12006-4  86752-3 0  9995
2 45207  53.0007 293.3318 0006635 252.6321 107.3994 16.27375304335838
STARLINK-1294           
1 45551U 20025W   26061.91343087  .08698372  12330-4  65191-3 0  9990
2 45551  53.0157   8.4401 0003277 240.2285 119.8435 16.39780373325875
STARLINK-1484           
1 45756U 20038AC  26061.91668981  .00428958  86669-4  97254-3 0  9998
2 45756  52.9990  91.5999 0006855  32.7054  67.3976 15.96975423  6061
STARLINK-1601           
1 46120U 20057D   26061.92011624  .02747533  11881-4  11060-2 0  9991
2 46120  53.0307 289.3063 0006756 251.0894 108.9413 16.22757357307132
STARLINK-1710           
1 46330U 20062F   26061.95381169  .06403357  12128-4  10242-2 0  9990
2 46330  53.0183 311.0443 0006420 241.4836 118.5561 16.32891849304649
STARLINK-1723           
1 46333U 20062J   26061.53258590  .01485377  16548-2  12791-2 0  9994
2 46333  53.0373 359.0751 0005724 189.6194 170.4732 16.13069914303929
STARLINK-1738           
1 46336U 20062M   26061.83335647  .00401154  78533-4  82479-3 0  9994
2 46336  53.0293 315.8358 0005591 130.6968 297.5526 15.98751496  6032
STARLINK-1750           
1 46337U 20062N   26061.91778823  .08285190  12208-4  87715-3 0  9994
2 46337  53.0231 324.6442 0007193 235.8147 124.2216 16.36733543304448
